{"fetched_at":"2026-03-29T16:36:15Z","count":15609,"tles":[{"name":"STARLINK-3364","line1":"1 51152U 22005BA  26087.64549951  .00000893  00000+0  74195-4 0  9998","line2":"2 51152  53.2149 223.6380 0001173  88.7213 271.3913 15.08839184231464","category":"Starlink"}]}